ONEWEB-0474             
1 51654U 22012AJ  23236.47355161  .00000538  00000+0  15062-2 0  9997
2 51654  87.8879 240.3009 0002097 100.5329 259.6035 13.10369848 74707
ONEWEB-0475             
1 51655U 22012AK  23236.42517424  .00000051  00000+0  97094-4 0  9992
2 51655  87.9188 210.0736 0001939  93.5448 266.5905 13.17646650 78343
ONEWEB-0490             
1 54113U 22138A   23236.28675913  .00006940  00000+0  17273-1 0  9996
2 54113  87.9288 149.5236 0001926  83.6995 276.4357 13.19787294 41253
ONEWEB-0492             
1 54114U 22138B   23236.68943166 -.00019749  00000+0 -49612-1 0  9994
2 54114  87.9285 149.4392 0002262  84.0686 276.0704 13.19530264 41311
ONEWEB-0495             
1 54115U 22138C   23236.29081972  .00019950  00000+0  49560-1 0  9994
2 54115  87.9287 149.5311 0002106  83.3890 276.7483 13.19901877 41247
ONEWEB-0497             
1 54116U 22138D   23236.30168197 -.00006732  00000+0 -16874-1 0  9990
2 54116  87.9293 149.5194 0002181  75.2305 284.9069 13.19668010 41237
ONEWEB-0499             
1 54117U 22138E   23236.28474201  .00000020  00000+0  18079-4 0  9998
2 54117  87.9287 149.5226 0001348  75.2974 284.8308 13.19723893 41240
ONEWEB-0500             
1 54118U 22138F   23236.28883392  .00014117  00000+0  35115-1 0  9993
2 54118  87.9292 149.5160 0002155  75.3618 284.7753 13.19842303 41259
